{"type": "FeatureCollection", "features": [{"type": "Feature", "properties": {"norad_id": 50032, "name": "COSMOS 1408 DEB", "group": "cosmos-1408-debris", "lat": 51.01653591570226, "lon": -144.3171162589937, "alt_km": 414.72360391892107, "timestamp": "2025-12-25T22:42:17.281796+00:00", "meta": {"OBJECT_NAME": "COSMOS 1408 DEB", "OBJECT_ID": "1982-092RU", "EPOCH": "2025-12-25T14:23:00.706272", "MEAN_MOTION": 15.45820267, "ECCENTRICITY": 0.0016562, "INCLINATION": 82.5629, "RA_OF_ASC_NODE": 45.327, "ARG_OF_PERICENTER": 161.3291, "MEAN_ANOMALY": 198.8569, "EPHEMERIS_TYPE": 0, "CLASSIFICATION_TYPE": "U", "NORAD_CAT_ID": 50032, "ELEMENT_SET_NO": 999, "REV_AT_EPOCH": 22802, "BSTAR": 0.00010522, "MEAN_MOTION_DOT": 5.167e-05, "MEAN_MOTION_DDOT": 0}, "tle": {"line1": "1 50032U 82092RU  25359.59931373  .00005167  00000+0  10522-3 0  9996", "line2": "2 50032  82.5629  45.3270 0016562 161.3291 198.8569 15.45820267228028"}}, "geometry": {"type": "Point", "coordinates": [-144.3171162589937, 51.01653591570226]}}, {"type": "Feature", "properties": {"norad_id": 50058, "name": "COSMOS 1408 DEB", "group": "cosmos-1408-debris", "lat": 39.83954733364741, "lon": -130.7046216237243, "alt_km": 369.73246425017805, "timestamp": "2025-12-25T22:42:17.281816+00:00", "meta": {"OBJECT_NAME": "COSMOS 1408 DEB", "OBJECT_ID": "1982-092SW", "EPOCH": "2025-12-25T14:26:16.632096", "MEAN_MOTION": 15.64877111, "ECCENTRICITY": 0.0015786, "INCLINATION": 82.6118, "RA_OF_ASC_NODE": 55.8717, "ARG_OF_PERICENTER": 55.2853, "MEAN_ANOMALY": 304.9891, "EPHEMERIS_TYPE": 0, "CLASSIFICATION_TYPE": "U", "NORAD_CAT_ID": 50058, "ELEMENT_SET_NO": 999, "REV_AT_EPOCH": 23005, "BSTAR": 0.00032982, "MEAN_MOTION_DOT": 0.0003249, "MEAN_MOTION_DDOT": 0}, "tle": {"line1": "1 50058U 82092SW  25359.60158139  .00032490  00000+0  32982-3 0  9990", "line2": "2 50058  82.6118  55.8717 0015786  55.2853 304.9891 15.64877111230059"}}, "geometry": {"type": "Point", "coordinates": [-130.7046216237243, 39.83954733364741]}}, {"type": "Feature", "properties": {"norad_id": 50404, "name": "COSMOS 1408 DEB", "group": "cosmos-1408-debris", "lat": 48.90832882607718, "lon": -149.4669746169666, "alt_km": 539.5240909083523, "timestamp": "2025-12-25T22:42:17.281829+00:00", "meta": {"OBJECT_NAME": "COSMOS 1408 DEB", "OBJECT_ID": "1982-092ADS", "EPOCH": "2025-12-25T00:18:07.841664", "MEAN_MOTION": 15.15742025, "ECCENTRICITY": 0.01667949, "INCLINATION": 82.202, "RA_OF_ASC_NODE": 202.4509, "ARG_OF_PERICENTER": 156.6613, "MEAN_ANOMALY": 204.2309, "EPHEMERIS_TYPE": 0, "CLASSIFICATION_TYPE": "U", "NORAD_CAT_ID": 50404, "ELEMENT_SET_NO": 999, "REV_AT_EPOCH": 21379, "BSTAR": 0.0033615862, "MEAN_MOTION_DOT": 0.00092417, "MEAN_MOTION_DDOT": 0}, "tle": {"line1": "1 50404U 82092ADS 25359.01259076  .00092417  00000+0  33616-2 0  9991", "line2": "2 50404  82.2020 202.4509 0166794 156.6613 204.2309 15.15742025213796"}}, "geometry": {"type": "Point", "coordinates": [-149.4669746169666, 48.90832882607718]}}, {"type": "Feature", "properties": {"norad_id": 50621, "name": "COSMOS 1408 DEB", "group": "cosmos-1408-debris", "lat": 19.562792279783505, "lon": -122.23360027274495, "alt_km": 384.30017127899555, "timestamp": "2025-12-25T22:42:17.281840+00:00", "meta": {"OBJECT_NAME": "COSMOS 1408 DEB", "OBJECT_ID": "1982-092ALR", "EPOCH": "2025-12-25T14:18:40.500576", "MEAN_MOTION": 15.57315441, "ECCENTRICITY": 0.0029193, "INCLINATION": 82.5685, "RA_OF_ASC_NODE": 60.7895, "ARG_OF_PERICENTER": 106.3231, "MEAN_ANOMALY": 254.1239, "EPHEMERIS_TYPE": 0, "CLASSIFICATION_TYPE": "U", "NORAD_CAT_ID": 50621, "ELEMENT_SET_NO": 999, "REV_AT_EPOCH": 22450, "BSTAR": 0.00035961, "MEAN_MOTION_DOT": 0.00026858, "MEAN_MOTION_DDOT": 0}, "tle": {"line1": "1 50621U 82092ALR 25359.59630209  .00026858  00000+0  35961-3 0  9998", "line2": "2 50621  82.5685  60.7895 0029193 106.3231 254.1239 15.57315441224500"}}, "geometry": {"type": "Point", "coordinates": [-122.23360027274495, 19.562792279783505]}}]}